{"fetched_at":"2026-03-29T16:36:15Z","count":15609,"tles":[{"name":"STARLINK-3576","line1":"1 51883U 22022AH  26087.79552938  .00000010  00000+0  18723-4 0  9999","line2":"2 51883  53.2176 273.5335 0001375  93.0361 267.0788 15.08840375226129","category":"Starlink"}]}